AMC-3                   
1 24936U 97050A   26116.83625653 -.00000268  00000+0  00000+0 0  9994
2 24936   8.0228  64.6637 0003090 321.0795  58.1392  1.00271411 51929
NSS-11                  
1 26554U 00059A   26116.78516862  .00000015  00000+0  00000+0 0  9999
2 26554   1.9958  81.9620 0002858 314.7261 276.7519  1.00272683 40773
AMC-6                   
1 26580U 00067A   26116.72678897  .00000076  00000+0  00000+0 0  9995
2 26580   0.0764  69.2678 0003970 343.7340 288.3600  1.00274255 93376
AMC-11                  
1 28252U 04017A   26116.75036360  .00000033  00000+0  00000+0 0  9991
2 28252   0.1567  76.6031 0000605 327.2916 295.4238  0.99091447 80345
AMC-15                  
1 28446U 04041A   26116.61583963 -.00000101  00000+0  00000+0 0  9991
2 28446   0.0519  55.3517 0002372 333.5328 302.3696  1.00272042 78785
NSS-10                  
1 28526U 05003A   26116.77177036 -.00000258  00000+0  00000+0 0  9999
2 28526   6.3239  71.0646 0003150 319.5106  64.5797  1.00271746 52649
ASTRA 1KR               
1 29055U 06012A   26116.85428325  .00000108  00000+0  00000+0 0  9990
2 29055   0.3426  82.5744 0003477 311.7560 147.0572  1.00273748 45188
ASTRA 1L                
1 31306U 07016A   26116.41779170 -.00000196  00000+0  00000+0 0  9994
2 31306   1.1897  81.9084 0004694 328.8407 289.5656  1.00271503 44464
ASTRA 4A                
1 32299U 07057A   26116.35232586  .00000020  00000+0  00000+0 0  9994
2 32299   0.0201 343.0517 0002773  65.2045 297.7526  1.00274291 51127
ASTRA 1M                
1 33436U 08057A   26116.85436992  .00000110  00000+0  00000+0 0  9991
2 33436   0.1652  79.4717 0003870   2.2005 100.1603  1.00274543 45227
NSS-9                   
1 33749U 09008A   26116.81545644  .00000061  00000+0  00000+0 0  9991
2 33749   1.1307  83.0752 0002169 296.1085 312.2522  1.00271848 63001
SES-7 (PROTOSTAR 2)     
1 34941U 09027A   26116.80063637 -.00000356  00000+0  00000+0 0  9991
2 34941   0.0977  79.4427 0001692 247.2684 284.5662  1.00270386 62110
NSS-12                  
1 36032U 09058A   26116.89122111  .00000060  00000+0  00000+0 0  9991
2 36032   0.0636  62.7971 0005039 310.3539 219.5683  1.00272364 60403
SES-1                   
1 36516U 10016A   26116.61661963 -.00000126  00000+0  00000+0 0  9991
2 36516   0.0236 289.7084 0002600 105.4092 300.4773  1.00272067 58519
ASTRA 3B                
1 36581U 10021A   26116.85514992  .00000127  00000+0  00000+0 0  9994
2 36581   1.3373  84.1370 0003906 320.2736 141.8129  1.00269207 58350
SES-3                   
1 37748U 11035A   26116.61618631 -.00000113  00000+0  00000+0 0  9991
2 37748   1.1950  83.5851 0003084 313.4212 296.4404  1.00271658 54073
ASTRA 1N                
1 37775U 11041A   26116.85436992  .00000108  00000+0  00000+0 0  9995
2 37775   0.0988  50.1680 0005543   9.4282 122.0290  1.00270798 44017
SES-2                   
1 37809U 11049A   26116.83330985 -.00000207  00000+0  00000+0 0  9995
2 37809   0.0610  76.6790 0002788 316.6334  34.5094  1.00272515 53446
QUETZSAT 1              
1 37826U 11054A   26116.83530317 -.00000253  00000+0  00000+0 0  9992
2 37826   0.0540  63.2751 0002567 345.6492  29.6153  1.00272067 49356
SES-4                   
1 38087U 12007A   26116.77489037 -.00000180  00000+0  00000+0 0  9995
2 38087   0.0221  42.4616 0002720  11.0775  58.2092  1.00271360 51718
SES-5                   
1 38652U 12036A   26116.70892005  .00000022  00000+0  00000+0 0  9995
2 38652   0.0594 300.4218 0002088  91.2198  83.2535  1.00271509 43941
ASTRA 2F                
1 38778U 12051A   26116.85610325  .00000139  00000+0  00000+0 0  9999
2 38778   0.0356 249.7829 0000464  18.0236 283.4430  1.00271906 40626
SES-6                   
1 39172U 13026A   26116.77116369 -.00000273  00000+0  00000+0 0  9991
2 39172   0.0265 351.7138 0002423  49.2956  50.8698  1.00271026 47210
O3B FM5                 
1 39188U 13031A   26116.66819691 -.00000027  00000+0  00000+0 0  9997
2 39188   0.1023 359.9231 0003140  24.6234 335.4669  5.00116490234469
O3B FM4                 
1 39189U 13031B   26116.78749132 -.00000027  00000+0  00000+0 0  9993
2 39189   0.0493 346.0000 0005149  48.9621 325.0702  5.00115192234473
O3B FM2                 
1 39190U 13031C   26116.65319398 -.00000027  00000+0  00000+0 0  9998
2 39190   0.0471 339.2001 0002788  54.2019 326.6141  5.00115974234532
O3B PFM                 
1 39191U 13031D   26113.46906767 -.00000026  00000+0  00000+0 0  9996
2 39191   0.0700 358.7224 0004841  42.5713 318.7416  5.00115912233936
ASTRA 2E                
1 39285U 13056A   26116.85618992  .00000139  00000+0  00000+0 0  9997
2 39285   0.0622   8.2523 0002318  29.2986 154.0488  1.00272577 45908
SES-8                   
1 39460U 13071A   26116.88358220 -.00000281  00000+0  00000+0 0  9996
2 39460   0.0194 260.0329 0002437 153.3949 214.5481  1.00271953 43910
ASTRA 5B                
1 39617U 14011B   26116.85514992  .00000125  00000+0  00000+0 0  9998
2 39617   0.0675 307.7565 0002683  65.8000 172.6426  1.00269765 44155
O3B FM3                 
1 40079U 14038A   26116.73396010 -.00000027  00000+0  00000+0 0  9999
2 40079   0.0514 355.2549 0001411 106.0121 258.7473  5.00115633210466
O3B FM7                 
1 40080U 14038B   26116.08038862 -.00000027  00000+0  00000+0 0  9997
2 40080   0.0542 347.5637 0004216  28.9904 343.4580  5.00115631215271
O3B FM6                 
1 40081U 14038C   26116.30727307 -.00000027  00000+0  00000+0 0  9992
2 40081   0.0520 352.0554 0002636  41.7448 326.2150  5.00115694215234
O3B FM8                 
1 40082U 14038D   26116.76034074 -.00000027  00000+0  00000+0 0  9995
2 40082   0.0524 350.9925 0002701  47.1419 321.8832  5.00116025215371
O3B FM10                
1 40348U 14083A   26116.58758973 -.00000027  00000+0  00000+0 0  9991
2 40348   0.0387 337.8692 0002657  58.0180 324.1291  5.00115309207318
O3B FM11                
1 40349U 14083B   26116.60027462 -.00000027  00000+0  00000+0 0  9997
2 40349   0.0578 359.2869 0002917  22.5130 338.2110  5.00115560207321
O3B FM12                
1 40350U 14083C   26116.62733138 -.00000027  00000+0  00000+0 0  9995
2 40350   0.0570 358.9779 0002541  33.2070 327.8291  5.00115890207348
O3B FM9                 
1 40351U 14083D   26116.65416259 -.00000027  00000+0  00000+0 0  9991
2 40351   0.0590 359.1012 0002708  35.8424 325.0726  5.00115928207491
ASTRA 2G                
1 40364U 14089A   26116.85610325  .00000138  00000+0  00000+0 0  9995
2 40364   0.0572  30.8938 0004788  13.6479 146.6883  1.00271334 41452
SES-9                   
1 41380U 16013A   26116.72939019 -.00000357  00000+0  00000+0 0  9997
2 41380   0.0163 283.5415 0002062 136.6947 165.3595  1.00270561 36928
SES-10                  
1 42432U 17017A   26116.83729653 -.00000284  00000+0  00000+0 0  9993
2 42432   0.0285  20.6273 0002920  29.4648  39.2761  1.00272132 33235
SES-15                  
1 42709U 17026A   26116.72553317  .00000048  00000+0  00000+0 0  9997
2 42709   0.0245 325.6634 0000632  43.2935 337.8043  1.00269771  6918
SES-11 (ECHOSTAR 105)   
1 42967U 17063A   26116.61583963  .00000000  00000+0  00000+0 0  9990
2 42967   0.0196  65.9987 0002928 357.1886 268.1780  1.00269641 31206
SES-14                  
1 43175U 18012B   26116.41328501 -.00000291  00000+0  00000+0 0  9993
2 43175   0.0426  52.9389 0000879 336.9700 285.8004  1.00272597  6503
O3B FM15                
1 43231U 18024A   26116.52105647 -.00000027  00000+0  00000+0 0  9992
2 43231   0.0510   4.2349 0002637  29.2807 326.4995  5.00115707148444
O3B FM16                
1 43232U 18024B   26116.37351760 -.00000027  00000+0  00000+0 0  9995
2 43232   0.0487   8.1920 0002684  23.6117 328.2109  5.00115916148359
O3B FM14                
1 43233U 18024C   26116.01451709 -.00000027  00000+0  00000+0 0  9991
2 43233   0.0471   8.2311 0002860  27.6841 324.1024  5.00115703148346
O3B FM13                
1 43234U 18024D   26116.08037929 -.00000027  00000+0  00000+0 0  9993
2 43234   0.0556 328.9915 0003580  21.8257   9.1746  5.00115553148456
SES-12                  
1 43488U 18049A   26116.88358220  .00000000  00000+0  00000+0 0  9999
2 43488   0.0144  63.2838 0001237 244.0053 320.6885  1.00267263 28907
O3B FM20                
1 44112U 19020A   26116.64022822 -.00000027  00000+0  00000+0 0  9994
2 44112   0.0532   1.3328 0002587  24.1404 334.5380  5.00115510128991
O3B FM19                
1 44113U 19020B   26111.67003593 -.00000022  00000+0  00000+0 0  9992
2 44113   0.0716 348.2754 0003491  26.5306 345.2041  5.00115966128611
O3B FM17                
1 44114U 19020C   26116.34762779 -.00000027  00000+0  00000+0 0  9995
2 44114   0.0341 355.1410 0002611  37.3518 327.5216  5.00115502128938
O3B FM18                
1 44115U 19020D   26116.49383057 -.00000027  00000+0  00000+0 0  9990
2 44115   0.0536   1.4893 0002733  35.3839 323.1440  5.00115269129066
SES-17                  
1 49332U 21095A   26116.83720985 -.00000284  00000+0  00000+0 0  9999
2 49332   0.0416  44.2609 0000934 345.2062  59.6660  1.00271052 17331
SES-22                  
1 52933U 22071A   26116.69350233  .00000093  00000+0  00000+0 0  9991
2 52933   0.0215 273.4764 0001000 117.7932 294.0767  1.00273890  7008
SES-20                  
1 53960U 22123A   26116.61618631  .00000000  00000+0  00000+0 0  9999
2 53960   0.0220 102.5703 0002109 323.1691 267.6136  1.00272753 13017
SES-21                  
1 53961U 22123B   26116.63378203  .00000057  00000+0  00000+0 0  9992
2 53961   0.0221  66.2576 0000980 325.6874 279.8726  1.00270480  6699
O3B MPOWER F1           
1 54755U 22174A   26116.85029656 -.00000027  00000+0  00000+0 0  9997
2 54755   0.0597 347.2861 0005894  65.4202  89.0618  5.00114871 62798
O3B MPOWER F2           
1 54756U 22174B   26116.73822294 -.00000027  00000+0  00000+0 0  9994
2 54756   0.0562 344.9587 0005940  48.7072 326.3703  5.00115334 62866
SES-18                  
1 55970U 23038A   26116.61618631 -.00000113  00000+0  00000+0 0  9994
2 55970   0.0206 258.4896 0001440  73.5505   1.2933  1.00271409 11589
SES-19                  
1 55971U 23038B   26116.72678897  .00000076  00000+0  00000+0 0  9994
2 55971   0.0221 285.0119 0001544 102.2257 314.2285  1.00271054 11572
O3B MPOWER F4           
1 56367U 23059A   26116.60264670 -.00000027  00000+0  00000+0 0  9991
2 56367   0.0649   2.5883 0007262  44.9517 312.5198  5.00115901 56025
O3B MPOWER F3           
1 56368U 23059B   26116.63591684 -.00000027  00000+0  00000+0 0  9993
2 56368   0.0660   2.2925 0006658  35.5940 322.1589  5.00116609 52154
O3B MPOWER F5           
1 58346U 23175A   26116.73664006 -.00000027  00000+0  00000+0 0  9990
2 58346   0.0448  11.8202 0004477  36.0320 312.1844  5.00115556 46858
O3B MPOWER F6           
1 58347U 23175B   26116.63741660 -.00000027  00000+0  00000+0 0  9992
2 58347   0.0514   6.1782 0004705  20.1726 333.6715  5.00116209 45772
ASTRA 1P (SES-24)       
1 60086U 24115A   26116.80600227  .00000108  00000+0  00000+0 0  9991
2 60086   0.0817  41.5990 0002806 275.5207 207.0425  1.00272353  6683
O3B MPOWER F7           
1 62362U 24244A   26116.70369538 -.00000027  00000+0  00000+0 0  9990
2 62362   0.0717 358.0196 0006077  35.3481 326.6691  5.00115126 23955
O3B MPOWER F8           
1 62363U 24244B   26116.47074652 -.00000027  00000+0  00000+0 0  9995
2 62363   0.0328 314.8174 0006294  71.4610 333.7519  5.00115433 18274
O3B MPOWER F9           
1 64866U 25153A   26116.40424748 -.00000027  00000+0  00000+0 0  9993
2 64866   0.0540  15.2057 0005562  45.2030 299.6452  5.00116073 16965
O3B MPOWER F10          
1 64867U 25153B   26116.37014564 -.00000027  00000+0  00000+0 0  9991
2 64867   0.0539  10.3193 0002840 262.4804  87.1662  5.00114940 19449
